{
  "type": "FeatureCollection",
  "features": [
    {
      "type": "Feature",
      "properties": {
        "norad_id": 34314,
        "name": "COSMOS 2251 DEB",
        "group": "cosmos-2251-debris",
        "lat": 52.09713465004894,
        "lon": 117.39362711273475,
        "alt_km": 789.7556355092929,
        "timestamp": "2025-12-06T18:50:10.563740+00:00",
        "meta_object_name": "COSMOS 2251 DEB",
        "meta_object_id": "1993-036NL",
        "meta_epoch": "2025-12-06T04:47:03.693984",
        "meta_mean_motion": 14.17398074,
        "meta_eccentricity": 0.01026125,
        "meta_inclination": 74.0055,
        "meta_ra_of_asc_node": 320.0552,
        "meta_arg_of_pericenter": 67.4129,
        "meta_mean_anomaly": 309.9595,
        "meta_ephemeris_type": 0,
        "meta_classification_type": "U",
        "meta_norad_cat_id": 34314,
        "meta_element_set_no": 999,
        "meta_rev_at_epoch": 86565,
        "meta_bstar": 0.0010727645,
        "meta_mean_motion_dot": 2.263e-05,
        "meta_mean_motion_ddot": 0,
        "tle_line1": "1 34314U 93036NL  25340.19934831  .00002263  00000+0  10728-2 0  9990",
        "tle_line2": "2 34314  74.0055 320.0552 0102612  67.4129 309.9595 14.17398074865650"
      },
      "geometry": {
        "type": "Point",
        "coordinates": [
          117.39362711273475,
          52.09713465004894
        ]
      }
    },
    {
      "type": "Feature",
      "properties": {
        "norad_id": 34316,
        "name": "COSMOS 2251 DEB",
        "group": "cosmos-2251-debris",
        "lat": 14.714955874727726,
        "lon": 164.51500120739124,
        "alt_km": 593.665857024278,
        "timestamp": "2025-12-06T18:50:10.563750+00:00",
        "meta_object_name": "COSMOS 2251 DEB",
        "meta_object_id": "1993-036NN",
        "meta_epoch": "2025-12-06T00:23:39.716160",
        "meta_mean_motion": 14.91521153,
        "meta_eccentricity": 0.00080245,
        "meta_inclination": 74.0653,
        "meta_ra_of_asc_node": 350.3559,
        "meta_arg_of_pericenter": 76.2244,
        "meta_mean_anomaly": 283.9831,
        "meta_ephemeris_type": 0,
        "meta_classification_type": "U",
        "meta_norad_cat_id": 34316,
        "meta_element_set_no": 999,
        "meta_rev_at_epoch": 89109,
        "meta_bstar": 0.0022447494,
        "meta_mean_motion_dot": 0.00022539,
        "meta_mean_motion_ddot": 0,
        "tle_line1": "1 34316U 93036NN  25340.01643190  .00022539  00000+0  22447-2 0  9997",
        "tle_line2": "2 34316  74.0653 350.3559 0008024  76.2244 283.9831 14.91521153891096"
      },
      "geometry": {
        "type": "Point",
        "coordinates": [
          164.51500120739124,
          14.714955874727726
        ]
      }
    },
    {
      "type": "Feature",
      "properties": {
        "norad_id": 34317,
        "name": "COSMOS 2251 DEB",
        "group": "cosmos-2251-debris",
        "lat": 68.40235682429216,
        "lon": 178.81341273655926,
        "alt_km": 912.1984466995518,
        "timestamp": "2025-12-06T18:50:10.563760+00:00",
        "meta_object_name": "COSMOS 2251 DEB",
        "meta_object_id": "1993-036NP",
        "meta_epoch": "2025-12-06T04:26:13.080768",
        "meta_mean_motion": 13.65113559,
        "meta_eccentricity": 0.03363353,
        "meta_inclination": 73.925,
        "meta_ra_of_asc_node": 46.5484,
        "meta_arg_of_pericenter": 37.0897,
        "meta_mean_anomaly": 356.5367,
        "meta_ephemeris_type": 0,
        "meta_classification_type": "U",
        "meta_norad_cat_id": 34317,
        "meta_element_set_no": 999,
        "meta_rev_at_epoch": 83530,
        "meta_bstar": 0.00058617094,
        "meta_mean_motion_dot": 6.78e-06,
        "meta_mean_motion_ddot": 0,
        "tle_line1": "1 34317U 93036NP  25340.18487362  .00000678  00000+0  58617-3 0  9992",
        "tle_line2": "2 34317  73.9250  46.5484 0336335  37.0897 356.5367 13.65113559835307"
      },
      "geometry": {
        "type": "Point",
        "coordinates": [
          178.81341273655926,
          68.40235682429216
        ]
      }
    },
    {
      "type": "Feature",
      "properties": {
        "norad_id": 34321,
        "name": "COSMOS 2251 DEB",
        "group": "cosmos-2251-debris",
        "lat": 51.271047004502144,
        "lon": -33.37425313200089,
        "alt_km": 731.5144748891107,
        "timestamp": "2025-12-06T18:50:10.563770+00:00",
        "meta_object_name": "COSMOS 2251 DEB",
        "meta_object_id": "1993-036NT",
        "meta_epoch": "2025-12-05T23:04:55.240608",
        "meta_mean_motion": 14.50010575,
        "meta_eccentricity": 0.00156691,
        "meta_inclination": 74.0276,
        "meta_ra_of_asc_node": 169.0956,
        "meta_arg_of_pericenter": 299.0253,
        "meta_mean_anomaly": 211.8562,
        "meta_ephemeris_type": 0,
        "meta_classification_type": "U",
        "meta_norad_cat_id": 34321,
        "meta_element_set_no": 999,
        "meta_rev_at_epoch": 88388,
        "meta_bstar": 0.00094597689,
        "meta_mean_motion_dot": 3.644e-05,
        "meta_mean_motion_ddot": 0,
        "tle_line1": "1 34321U 93036NT  25339.96175047  .00003644  00000+0  94598-3 0  9999",
        "tle_line2": "2 34321  74.0276 169.0956 0015669 299.0253 211.8562 14.50010575883882"
      },
      "geometry": {
        "type": "Point",
        "coordinates": [
          -33.37425313200089,
          51.271047004502144
        ]
      }
    },
    {
      "type": "Feature",
      "properties": {
        "norad_id": 34323,
        "name": "COSMOS 2251 DEB",
        "group": "cosmos-2251-debris",
        "lat": -17.117505518721586,
        "lon": 129.71242741433977,
        "alt_km": 692.8376471605288,
        "timestamp": "2025-12-06T18:50:10.563780+00:00",
        "meta_object_name": "COSMOS 2251 DEB",
        "meta_object_id": "1993-036NV",
        "meta_epoch": "2025-12-06T05:03:17.239680",
        "meta_mean_motion": 14.74079238,
        "meta_eccentricity": 0.00603885,
        "meta_inclination": 73.953,
        "meta_ra_of_asc_node": 135.9238,
        "meta_arg_of_pericenter": 181.695,
        "meta_mean_anomaly": 354.3458,
        "meta_ephemeris_type": 0,
        "meta_classification_type": "U",
        "meta_norad_cat_id": 34323,
        "meta_element_set_no": 999,
        "meta_rev_at_epoch": 88343,
        "meta_bstar": 0.004321641,
        "meta_mean_motion_dot": 0.00029397,
        "meta_mean_motion_ddot": 0,
        "tle_line1": "1 34323U 93036NV  25340.21061620  .00029397  00000+0  43216-2 0  9995",
        "tle_line2": "2 34323  73.9530 135.9238 0060388 181.6950 354.3458 14.74079238883433"
      },
      "geometry": {
        "type": "Point",
        "coordinates": [
          129.71242741433977,
          -17.117505518721586
        ]
      }
    },
    {
      "type": "Feature",
      "properties": {
        "norad_id": 34325,
        "name": "COSMOS 2251 DEB",
        "group": "cosmos-2251-debris",
        "lat": -67.0660161135847,
        "lon": 66.44786976732064,
        "alt_km": 765.4342180581561,
        "timestamp": "2025-12-06T18:50:10.563791+00:00",
        "meta_object_name": "COSMOS 2251 DEB",
        "meta_object_id": "1993-036NX",
        "meta_epoch": "2025-12-05T21:11:00.451968",
        "meta_mean_motion": 14.04410187,
        "meta_eccentricity": 0.01929442,
        "meta_inclination": 73.871,
        "meta_ra_of_asc_node": 204.8883,
        "meta_arg_of_pericenter": 223.5977,
        "meta_mean_anomaly": 149.0348,
        "meta_ephemeris_type": 0,
        "meta_classification_type": "U",
        "meta_norad_cat_id": 34325,
        "meta_element_set_no": 999,
        "meta_rev_at_epoch": 85419,
        "meta_bstar": 0.0031039091,
        "meta_mean_motion_dot": 5.814e-05,
        "meta_mean_motion_ddot": 0,
        "tle_line1": "1 34325U 93036NX  25339.88264412  .00005814  00000+0  31039-2 0  9990",
        "tle_line2": "2 34325  73.8710 204.8883 0192944 223.5977 149.0348 14.04410187854198"
      },
      "geometry": {
        "type": "Point",
        "coordinates": [
          66.44786976732064,
          -67.0660161135847
        ]
      }
    },
    {
      "type": "Feature",
      "properties": {
        "norad_id": 34327,
        "name": "COSMOS 2251 DEB",
        "group": "cosmos-2251-debris",
        "lat": 52.24738205437454,
        "lon": -154.42755645131243,
        "alt_km": 582.5377717783167,
        "timestamp": "2025-12-06T18:50:10.563801+00:00",
        "meta_object_name": "COSMOS 2251 DEB",
        "meta_object_id": "1993-036NZ",
        "meta_epoch": "2025-12-06T08:06:42.513984",
        "meta_mean_motion": 14.88971389,
        "meta_eccentricity": 0.00324155,
        "meta_inclination": 73.993,
        "meta_ra_of_asc_node": 184.7068,
        "meta_arg_of_pericenter": 2.4096,
        "meta_mean_anomaly": 178.4294,
        "meta_ephemeris_type": 0,
        "meta_classification_type": "U",
        "meta_norad_cat_id": 34327,
        "meta_element_set_no": 999,
        "meta_rev_at_epoch": 89412,
        "meta_bstar": 0.002058166,
        "meta_mean_motion_dot": 0.0001956,
        "meta_mean_motion_ddot": 0,
        "tle_line1": "1 34327U 93036NZ  25340.33799206  .00019560  00000+0  20582-2 0  9992",
        "tle_line2": "2 34327  73.9930 184.7068 0032415   2.4096 178.4294 14.88971389894129"
      },
      "geometry": {
        "type": "Point",
        "coordinates": [
          -154.42755645131243,
          52.24738205437454
        ]
      }
    }
  ]
}